{"type":"FeatureCollection","metadata":{"window_27700":[530000.0,257400.0,534200.0,261600.0],"crs":"EPSG:27700","source":"OpenStreetMap via Overpass (ODbL)","queries":"isobenefit_qgis.osm_queries.build_query('water')"},"features":[{"type":"Feature","properties":{},"geometry":{"type":"Polygon","coordinates":[[[531926.3,259805.7],[531900.0,259821.8],[531899.0,259847.5],[531920.2,259876.0],[531943.1,259878.1],[531960.7,259863.3],[531963.5,259843.3],[531951.4,259818.8],[531926.3,259805.7]]]}},{"type":"Feature","properties":{},"geometry":{"type":"Polygon","coordinates":[[[531552.5,259906.1],[531504.0,259915.0],[531506.0,259925.2],[531533.7,259927.6],[531564.0,259943.8],[531616.1,259934.2],[531611.2,259906.9],[531552.5,259906.1]]]}},{"type":"Feature","properties":{},"geometry":{"type":"Polygon","coordinates":[[[531438.8,259940.7],[531402.7,259965.5],[531407.7,259972.2],[531470.4,259960.8],[531474.1,259942.6],[531490.7,259928.5],[531489.1,259919.2],[531438.8,259940.7]]]}},{"type":"Feature","properties":{"name":"Lake Lambert"},"geometry":{"type":"Polygon","coordinates":[[[531907.6,259820.0],[531912.8,259784.9],[531893.0,259774.3],[531855.5,259797.3],[531883.3,259826.3],[531928.3,259834.7],[531907.6,259820.0]]]}},{"type":"Feature","properties":{},"geometry":{"type":"Polygon","coordinates":[[[531907.5,259952.8],[531908.2,259968.1],[531922.8,259978.1],[531927.8,259960.1],[531951.1,259956.9],[531952.8,259918.3],[532003.9,259909.1],[531983.0,259892.8],[531953.5,259889.2],[531934.4,259852.5],[531907.5,259952.8]]]}},{"type":"Feature","properties":{"name":"Redgrave Water"},"geometry":{"type":"Polygon","coordinates":[[[531267.5,259145.8],[531279.3,259128.6],[531274.0,259112.5],[531247.6,259108.0],[531237.2,259085.3],[531220.2,259076.1],[531175.9,259066.4],[531170.2,259052.1],[531185.2,259038.0],[531171.2,259024.0],[531137.7,259017.7],[531081.0,259029.2],[531074.7,259049.9],[531098.8,259073.5],[531124.2,259065.0],[531136.8,259072.9],[531142.2,259092.4],[531184.8,259122.4],[531267.5,259145.8]]]}},{"type":"Feature","properties":{"name":"Lake Ewart"},"geometry":{"type":"Polygon","coordinates":[[[531384.0,259217.7],[531372.6,259230.4],[531397.7,259272.2],[531430.0,259272.9],[531432.4,259311.7],[531446.2,259327.0],[531449.2,259348.0],[531474.8,259382.8],[531488.9,259388.6],[531495.3,259361.5],[531489.1,259313.0],[531505.3,259269.4],[531500.8,259233.2],[531474.5,259222.3],[531384.0,259217.7]]]}},{"type":"Feature","properties":{"name":"Sirius Lake"},"geometry":{"type":"Polygon","coordinates":[[[532595.2,258998.7],[532566.1,259013.0],[532553.3,259027.4],[532552.0,259077.0],[532573.6,259097.8],[532632.9,259120.1],[532674.5,259147.7],[532709.9,259150.0],[532707.2,259131.9],[532595.2,258998.7]]]}},{"type":"Feature","properties":{},"geometry":{"type":"Polygon","coordinates":[[[531669.6,259630.0],[531645.2,259621.8],[531623.5,259635.5],[531617.9,259661.2],[531629.1,259681.2],[531651.3,259687.5],[531671.3,259676.2],[531678.7,259654.0],[531669.6,259630.0]]]}},{"type":"Feature","properties":{},"geometry":{"type":"Polygon","coordinates":[[[531633.3,259596.7],[531613.1,259607.7],[531606.6,259629.7],[531618.9,259651.6],[531641.0,259658.1],[531661.1,259647.1],[531667.6,259625.1],[531657.5,259605.2],[531633.3,259596.7]]]}},{"type":"Feature","properties":{},"geometry":{"type":"Polygon","coordinates":[[[531564.2,259596.7],[531574.4,259624.3],[531597.0,259638.3],[531621.6,259631.2],[531631.3,259613.4],[531632.4,259550.1],[531611.3,259524.1],[531573.5,259504.9],[531552.0,259513.0],[531542.5,259533.9],[531548.7,259553.2],[531570.9,259571.8],[531564.2,259596.7]]]}},{"type":"Feature","properties":{},"geometry":{"type":"Polygon","coordinates":[[[531815.0,259839.6],[531843.2,259827.0],[531847.5,259801.8],[531824.9,259764.7],[531785.7,259742.9],[531733.5,259732.1],[531666.8,259657.6],[531631.4,259662.3],[531624.3,259694.9],[531671.9,259757.1],[531702.6,259783.9],[531775.3,259803.3],[531815.0,259839.6]]]}},{"type":"Feature","properties":{"name":"Bourn Brook"},"geometry":{"type":"Polygon","coordinates":[[[530065.7,258337.6],[530124.6,258286.3],[530189.9,258297.5],[530305.9,258236.0],[530334.5,258201.7],[530341.7,258150.2],[530374.7,258165.9],[530397.6,258163.9],[530456.2,258105.7],[530506.6,257959.7],[530549.9,257953.6],[530594.0,257906.2],[530636.4,257912.0],[530695.1,257871.3],[530757.8,257857.8],[530817.5,257809.5],[530893.6,257726.8],[530946.6,257707.3],[530965.2,257650.1],[531008.4,257601.0],[531064.4,257584.9],[531141.3,257590.5],[531154.1,257610.4],[531177.1,257620.6],[531266.3,257618.7],[531326.2,257596.1],[531345.8,257575.1],[531384.0,257564.2],[531404.8,257534.4],[531403.4,257510.9],[531387.3,257485.7],[531407.2,257431.3],[531405.5,257400.0],[531333.4,257400.0],[531341.1,257429.3],[531326.3,257492.6],[531335.2,257515.8],[531297.7,257537.8],[531272.2,257542.5],[531255.0,257558.8],[531194.4,257561.3],[531179.4,257541.0],[531152.8,257531.1],[531063.1,257524.9],[530994.1,257540.2],[530943.1,257577.6],[530908.4,257629.1],[530898.9,257663.2],[530856.0,257680.0],[530776.4,257765.8],[530725.3,257807.1],[530670.5,257815.3],[530617.1,257846.7],[530572.0,257846.5],[530518.7,257900.1],[530489.4,257890.3],[530470.3,257895.5],[530404.9,258073.8],[530388.3,258093.8],[530379.9,258101.7],[530338.9,258087.0],[530287.8,258092.3],[530270.7,258121.8],[530281.1,258152.3],[530268.6,258188.3],[530180.0,258236.6],[530138.4,258221.0],[530085.9,258238.5],[530035.2,258285.4],[530000.0,258295.4],[530000.0,258358.1],[530065.7,258337.6]]]}},{"type":"Feature","properties":{},"geometry":{"type":"Polygon","coordinates":[[[534113.4,257914.8],[534101.6,257767.8],[534200.0,257599.7],[534200.0,257483.8],[534060.2,257712.5],[534041.6,257759.3],[534056.4,257934.9],[534121.0,258068.2],[534181.1,258117.8],[534200.0,258149.2],[534200.0,258056.2],[534170.2,258032.3],[534113.4,257914.8]]]}},{"type":"Feature","properties":{},"geometry":{"type":"Polygon","coordinates":[[[532655.4,261172.7],[532655.4,261195.6],[532671.7,261211.8],[532691.9,261212.8],[532708.1,261200.7],[532867.4,260890.3],[532974.1,260605.4],[532972.4,260585.3],[532958.3,260570.8],[532935.4,260569.3],[532918.2,260584.5],[532813.0,260864.9],[532655.4,261172.7]]]}},{"type":"Feature","properties":{},"geometry":{"type":"Polygon","coordinates":[[[532089.1,260139.5],[532262.4,260145.4],[532373.7,260134.7],[532393.6,260123.2],[532399.6,260101.1],[532390.4,260083.1],[532371.9,260075.0],[532261.1,260085.4],[532083.2,260079.7],[531982.9,260102.5],[531903.6,260148.7],[531894.2,260178.1],[531907.5,260196.8],[531930.1,260200.5],[532028.5,260149.4],[532089.1,260139.5]]]}},{"type":"Feature","properties":{},"geometry":{"type":"Polygon","coordinates":[[[532544.5,260116.0],[532614.8,260074.7],[532711.7,260073.5],[532774.9,260053.4],[532792.3,260038.4],[532794.0,260015.5],[532764.8,259994.9],[532703.3,260013.8],[532598.7,260015.5],[532528.5,260057.4],[532503.2,260052.7],[532441.4,260062.6],[532419.4,260080.3],[532419.2,260103.3],[532435.2,260119.7],[532544.5,260116.0]]]}},{"type":"Feature","properties":{},"geometry":{"type":"Polygon","coordinates":[[[532776.1,260098.7],[532780.5,260076.2],[532767.6,260057.1],[532745.1,260052.7],[532534.5,260095.6],[532447.0,260135.5],[532434.7,260163.7],[532446.2,260183.6],[532468.3,260189.6],[532553.0,260152.9],[532757.0,260111.5],[532776.1,260098.7]]]}},{"type":"Feature","properties":{},"geometry":{"type":"Polygon","coordinates":[[[532542.3,260154.1],[532572.0,260134.2],[532562.7,260077.6],[532544.5,260059.5],[532521.6,260060.7],[532506.2,260077.7],[532515.5,260134.3],[532542.3,260154.1]]]}},{"type":"Feature","properties":{},"geometry":{"type":"Polygon","coordinates":[[[532594.0,260072.7],[532614.2,260073.4],[532630.2,260061.1],[532634.8,260041.4],[532591.1,259938.4],[532563.0,259925.6],[532543.0,259936.8],[532536.6,259958.8],[532578.8,260059.4],[532594.0,260072.7]]]}},{"type":"Feature","properties":{},"geometry":{"type":"Polygon","coordinates":[[[532111.5,260062.0],[532108.3,260082.5],[532124.8,260131.6],[532149.8,260144.8],[532176.2,260128.7],[532174.6,260093.9],[532232.9,260072.3],[532245.2,260046.8],[532235.5,260026.0],[532214.0,260018.0],[532126.1,260047.4],[532111.5,260062.0]]]}},{"type":"Feature","properties":{},"geometry":{"type":"Polygon","coordinates":[[[532509.5,260441.9],[532529.7,260440.9],[532545.9,260424.6],[532546.9,260404.4],[532474.2,260267.8],[532440.6,260255.8],[532422.8,260270.3],[532420.6,260293.2],[532493.2,260429.8],[532509.5,260441.9]]]}},{"type":"Feature","properties":{},"geometry":{"type":"Polygon","coordinates":[[[532811.2,260006.0],[532831.4,260007.6],[532848.0,259996.1],[532853.2,259973.8],[532804.1,259841.9],[532772.3,259825.5],[532752.8,259837.6],[532747.5,259860.0],[532796.7,259991.9],[532811.2,260006.0]]]}},{"type":"Feature","properties":{},"geometry":{"type":"Polygon","coordinates":[[[533690.4,258025.9],[533754.1,257866.6],[533831.5,257805.7],[534099.5,257754.9],[534115.5,257731.6],[534102.7,257703.5],[534080.3,257698.7],[533810.5,257748.7],[533706.2,257828.7],[533631.8,258011.8],[533593.7,258317.6],[533609.9,258333.9],[533632.9,258333.9],[533647.9,258320.4],[533690.4,258025.9]]]}},{"type":"Feature","properties":{},"geometry":{"type":"Polygon","coordinates":[[[532355.9,260816.5],[532422.0,260854.0],[532454.9,260840.0],[532458.7,260820.2],[532449.0,260802.4],[532388.0,260765.9],[532215.6,260630.0],[532044.3,260350.7],[532027.4,260339.7],[532007.3,260341.8],[531992.0,260359.0],[531993.4,260381.9],[532168.7,260668.2],[532355.9,260816.5]]]}},{"type":"Feature","properties":{},"geometry":{"type":"Polygon","coordinates":[[[530000.0,260708.2],[530180.0,260716.7],[530180.3,260705.8],[530000.0,260693.8],[530000.0,260708.2]]]}},{"type":"Feature","properties":{},"geometry":{"type":"Polygon","coordinates":[[[533393.5,259263.0],[533380.2,259253.4],[533382.5,259216.3],[533379.1,259202.7],[533369.3,259201.4],[533366.0,259236.6],[533346.3,259238.7],[533331.5,259257.4],[533347.2,259271.8],[533378.4,259273.7],[533393.5,259263.0]]]}},{"type":"Feature","properties":{},"geometry":{"type":"Polygon","coordinates":[[[530930.7,258962.4],[530825.2,258907.2],[530802.3,258907.9],[530786.5,258924.6],[530796.3,258959.0],[530896.8,259012.1],[530939.3,259062.5],[530977.8,259077.6],[530996.9,259064.7],[531001.2,259042.1],[530930.7,258962.4]]]}},{"type":"Feature","properties":{},"geometry":{"type":"Polygon","coordinates":[[[532505.6,260354.8],[532520.6,260369.6],[532537.0,260359.8],[532532.1,260286.8],[532500.9,260246.0],[532477.2,260252.7],[532468.1,260265.8],[532505.6,260354.8]]]}},{"type":"Feature","properties":{"name":"Whomping Willow Lake"},"geometry":{"type":"Polygon","coordinates":[[[532025.4,258571.3],[532011.6,258588.3],[532016.4,258605.7],[532054.2,258616.5],[532071.4,258606.0],[532081.8,258581.7],[532093.9,258580.5],[532111.7,258599.1],[532094.9,258633.5],[532102.7,258659.7],[532129.4,258674.0],[532148.5,258664.8],[532175.0,258604.0],[532150.7,258560.7],[532090.3,258524.2],[532080.0,258534.6],[532022.3,258533.6],[532018.0,258558.2],[532025.4,258571.3]]]}},{"type":"Feature","properties":{},"geometry":{"type":"Polygon","coordinates":[[[531622.8,259590.8],[531601.4,259609.3],[531603.4,259634.9],[531625.7,259654.6],[531648.7,259654.0],[531664.4,259637.3],[531663.8,259614.3],[531647.8,259596.3],[531622.8,259590.8]]]}},{"type":"Feature","properties":{},"geometry":{"type":"Polygon","coordinates":[[[531612.5,259586.4],[531592.6,259606.5],[531596.5,259631.9],[531620.0,259648.5],[531642.9,259646.9],[531657.9,259629.5],[531656.3,259606.6],[531639.8,259590.9],[531612.5,259586.4]]]}},{"type":"Feature","properties":{},"geometry":{"type":"Polygon","coordinates":[[[531136.2,258292.9],[531080.2,258246.8],[531065.0,258247.6],[531042.2,258269.2],[531048.2,258291.3],[531066.1,258307.1],[531070.6,258302.1],[531056.4,258284.9],[531075.7,258278.1],[531092.9,258292.5],[531116.3,258296.0],[531107.0,258313.3],[531138.1,258303.9],[531136.2,258292.9]]]}},{"type":"Feature","properties":{},"geometry":{"type":"Polygon","coordinates":[[[530199.5,261065.9],[530214.9,261062.7],[530219.8,261057.7],[530187.9,260960.3],[530185.9,261009.6],[530199.5,261065.9]]]}},{"type":"Feature","properties":{},"geometry":{"type":"Polygon","coordinates":[[[530758.6,258885.0],[530749.0,258919.5],[530799.7,258961.3],[530825.3,258963.3],[530842.0,258947.5],[530842.6,258924.5],[530791.8,258882.6],[530758.6,258885.0]]]}},{"type":"Feature","properties":{},"geometry":{"type":"Polygon","coordinates":[[[530188.2,258593.5],[530278.6,258608.6],[530315.4,258662.2],[530370.6,258679.4],[530397.5,258664.3],[530395.1,258631.0],[530350.1,258610.7],[530312.6,258557.8],[530279.0,258539.2],[530221.1,258543.0],[530148.9,258447.3],[530125.5,258436.7],[530104.4,258445.8],[530096.0,258467.2],[530124.5,258521.3],[530188.2,258593.5]]]}},{"type":"Feature","properties":{},"geometry":{"type":"Polygon","coordinates":[[[531063.3,261323.0],[531058.7,261303.1],[530959.8,261329.8],[530968.1,261353.1],[531063.3,261323.0]]]}},{"type":"Feature","properties":{},"geometry":{"type":"Polygon","coordinates":[[[532805.1,259866.1],[532805.5,259845.4],[532752.4,259729.6],[532717.4,259675.4],[532694.5,259673.2],[532639.2,259700.1],[532541.1,259723.3],[532507.0,259748.6],[532509.7,259776.7],[532534.5,259790.2],[532691.2,259742.6],[532736.9,259839.3],[532546.4,259918.4],[532533.2,259946.2],[532551.5,259971.1],[532574.5,259971.1],[532791.3,259881.6],[532805.1,259866.1]]]}},{"type":"Feature","properties":{},"geometry":{"type":"Polygon","coordinates":[[[530026.8,259813.3],[530049.0,259798.6],[530068.8,259810.1],[530081.7,259844.8],[530094.7,259851.7],[530137.2,259846.8],[530137.9,259798.2],[530125.1,259782.1],[530095.8,259786.3],[530071.1,259771.2],[530072.4,259708.1],[530090.5,259683.2],[530122.5,259666.6],[530113.1,259612.2],[530042.9,259685.4],[530036.2,259719.8],[530011.7,259752.4],[530019.3,259774.9],[530001.7,259790.2],[530003.1,259808.0],[530026.8,259813.3]]]}},{"type":"Feature","properties":{},"geometry":{"type":"Polygon","coordinates":[[[530557.9,260181.3],[530555.1,260189.7],[530579.1,260211.9],[530651.5,260231.2],[530660.5,260202.7],[530622.3,260180.3],[530557.9,260181.3]]]}},{"type":"Feature","properties":{},"geometry":{"type":"Polygon","coordinates":[[[530447.6,260149.7],[530517.2,260152.3],[530516.8,260139.1],[530479.2,260120.4],[530440.3,260136.5],[530447.6,260149.7]]]}},{"type":"Feature","properties":{},"geometry":{"type":"Polygon","coordinates":[[[530352.0,260083.8],[530360.5,260118.7],[530386.4,260121.4],[530391.0,260114.8],[530367.9,260087.8],[530372.4,260062.7],[530347.4,260059.1],[530345.1,260032.9],[530331.9,260032.6],[530331.6,260052.9],[530352.0,260083.8]]]}},{"type":"Feature","properties":{},"geometry":{"type":"Polygon","coordinates":[[[530301.9,259927.2],[530310.0,259974.0],[530326.6,259991.1],[530322.4,260002.9],[530344.0,260013.7],[530342.4,259982.9],[530324.0,259970.0],[530306.6,259914.9],[530273.4,259895.3],[530242.7,259856.5],[530210.4,259842.3],[530301.9,259927.2]]]}},{"type":"Feature","properties":{},"geometry":{"type":"Polygon","coordinates":[[[533000.4,260485.3],[532997.4,260508.0],[533011.4,260526.2],[533044.7,260524.0],[533138.5,260435.1],[533273.9,260179.7],[533274.8,260159.5],[533262.7,260143.3],[533240.2,260139.0],[533221.2,260151.8],[533089.6,260399.7],[533000.4,260485.3]]]}},{"type":"Feature","properties":{},"geometry":{"type":"Polygon","coordinates":[[[532991.0,260506.5],[533003.5,260528.9],[533028.7,260533.4],[533050.8,260517.6],[533056.0,260495.3],[533043.8,260475.8],[533021.4,260470.6],[533000.3,260482.6],[532991.0,260506.5]]]}},{"type":"Feature","properties":{},"geometry":{"type":"Polygon","coordinates":[[[532916.8,260597.8],[532928.3,260617.7],[532950.5,260623.6],[532968.5,260614.3],[532984.9,260577.0],[533044.9,260522.5],[533048.1,260491.8],[533031.2,260476.3],[533008.2,260477.3],[532937.3,260539.2],[532916.8,260597.8]]]}},{"type":"Feature","properties":{},"geometry":{"type":"Polygon","coordinates":[[[532920.8,260615.2],[532940.3,260627.3],[532964.9,260620.2],[532976.2,260598.7],[532970.9,260576.3],[532951.4,260564.3],[532929.0,260569.5],[532916.1,260590.0],[532920.8,260615.2]]]}},{"type":"Feature","properties":{},"geometry":{"type":"Polygon","coordinates":[[[532435.6,260755.9],[532454.9,260768.3],[532474.9,260764.9],[532489.1,260746.9],[532547.0,260422.2],[532541.7,260402.7],[532525.2,260391.0],[532502.4,260393.7],[532488.2,260411.7],[532430.7,260733.4],[532435.6,260755.9]]]}},{"type":"Feature","properties":{},"geometry":{"type":"Polygon","coordinates":[[[532441.3,260771.4],[532466.5,260776.2],[532486.3,260759.8],[532489.3,260731.3],[532475.5,260712.9],[532452.8,260709.7],[532434.4,260723.5],[532429.1,260745.9],[532441.3,260771.4]]]}},{"type":"Feature","properties":{},"geometry":{"type":"Polygon","coordinates":[[[530524.3,259437.6],[530578.8,259459.4],[530613.8,259449.9],[530630.9,259455.6],[530642.0,259446.2],[530641.4,259434.5],[530587.5,259403.8],[530518.9,259426.5],[530524.3,259437.6]]]}},{"type":"Feature","properties":{},"geometry":{"type":"Polygon","coordinates":[[[530104.0,258286.2],[530093.4,258269.0],[530071.3,258262.6],[530051.2,258273.6],[530042.8,258332.4],[530057.4,258379.5],[530074.5,258394.8],[530097.4,258393.5],[530112.7,258376.3],[530104.0,258286.2]]]}},{"type":"Feature","properties":{},"geometry":{"type":"Polygon","coordinates":[[[530124.5,258427.0],[530098.1,258437.3],[530091.4,258462.0],[530106.4,258489.5],[530128.3,258496.6],[530148.7,258486.2],[530155.9,258464.4],[530146.2,258440.6],[530124.5,258427.0]]]}},{"type":"Feature","properties":{},"geometry":{"type":"Polygon","coordinates":[[[530355.6,258623.9],[530342.2,258642.6],[530345.9,258665.2],[530367.1,258679.8],[530389.8,258676.1],[530403.2,258657.4],[530399.5,258634.7],[530381.1,258621.0],[530355.6,258623.9]]]}},{"type":"Feature","properties":{},"geometry":{"type":"Polygon","coordinates":[[[530527.5,258695.5],[530386.1,258623.1],[530363.1,258622.6],[530346.5,258638.4],[530345.1,258658.6],[530356.7,258675.1],[530495.1,258746.2],[530720.3,258903.5],[530755.7,258898.2],[530764.4,258877.0],[530755.6,258855.8],[530527.5,258695.5]]]}},{"type":"Feature","properties":{},"geometry":{"type":"Polygon","coordinates":[[[530722.3,258849.6],[530705.5,258869.0],[530709.9,258894.2],[530732.6,258909.9],[530755.4,258907.2],[530769.6,258889.1],[530766.8,258866.3],[530748.0,258850.3],[530722.3,258849.6]]]}},{"type":"Feature","properties":{},"geometry":{"type":"Polygon","coordinates":[[[530720.8,258858.5],[530712.3,258890.8],[530761.3,258934.2],[530786.7,258937.1],[530804.0,258921.9],[530805.4,258899.0],[530756.4,258855.5],[530720.8,258858.5]]]}},{"type":"Feature","properties":{},"geometry":{"type":"Polygon","coordinates":[[[530090.8,258337.1],[530065.8,258342.9],[530054.4,258365.9],[530063.0,258392.6],[530083.1,258403.8],[530105.1,258397.5],[530115.8,258380.3],[530112.3,258355.5],[530090.8,258337.1]]]}},{"type":"Feature","properties":{},"geometry":{"type":"Polygon","coordinates":[[[530100.0,258347.1],[530077.1,258345.5],[530059.7,258360.5],[530057.3,258380.6],[530084.1,258457.8],[530101.7,258479.8],[530120.6,258486.8],[530141.9,258478.2],[530150.9,258457.0],[530100.0,258347.1]]]}},{"type":"Feature","properties":{},"geometry":{"type":"Polygon","coordinates":[[[532496.8,260442.0],[532521.4,260449.6],[532542.8,260435.4],[532547.9,260408.9],[532536.2,260389.2],[532513.9,260383.5],[532494.2,260395.1],[532487.2,260418.2],[532496.8,260442.0]]]}},{"type":"Feature","properties":{"name":"Willow Lake"},"geometry":{"type":"Polygon","coordinates":[[[531594.5,260904.3],[531587.4,260929.7],[531558.5,260913.8],[531544.0,260923.1],[531535.9,260979.7],[531548.0,261013.0],[531567.6,261015.3],[531641.8,260981.3],[531601.9,260949.3],[531611.4,260939.0],[531631.0,260952.3],[531640.1,260947.2],[531634.2,260907.6],[531616.6,260894.1],[531594.5,260904.3]]]}},{"type":"Feature","properties":{"name":"Crab Tree Lake"},"geometry":{"type":"Polygon","coordinates":[[[531460.4,261017.1],[531464.1,261037.1],[531519.0,261025.8],[531512.6,260989.4],[531481.5,260989.3],[531460.4,261017.1]]]}},{"type":"Feature","properties":{"name":"Cherry Tree Lake"},"geometry":{"type":"Polygon","coordinates":[[[531485.2,260908.4],[531478.0,260916.0],[531476.1,260931.0],[531495.5,260968.1],[531520.8,260961.6],[531520.9,260915.9],[531485.2,260908.4]]]}},{"type":"Feature","properties":{"name":"Honeysuckle Lake"},"geometry":{"type":"Polygon","coordinates":[[[531480.7,261108.1],[531492.1,261120.6],[531623.4,261097.6],[531689.5,261147.1],[531706.0,261147.3],[531715.7,261135.0],[531711.3,261119.9],[531636.4,261061.0],[531483.1,261093.5],[531480.7,261108.1]]]}},{"type":"Feature","properties":{},"geometry":{"type":"Polygon","coordinates":[[[530976.8,258204.5],[531006.3,258168.0],[531007.1,258186.1],[530983.6,258229.4],[531024.5,258257.7],[530995.0,258220.7],[531042.5,258244.7],[531058.5,258186.0],[531053.0,258123.8],[530967.6,258134.4],[530946.7,258163.1],[530976.8,258204.5]]]}}]}