{"type":"FeatureCollection","crs":{"type":"name","properties":{"name":"urn:ogc:def:crs:EPSG::32614"}},"metadata":{"crs":"EPSG:32614","source":"OpenStreetMap via Overpass (ODbL)","queries":"isobenefit_qgis.osm_queries.build_query('water')"},"features":[{"type":"Feature","properties":{},"geometry":{"type":"Polygon","coordinates":[[[704406.5,3688754.2],[704414.8,3688764.3],[704443.1,3688746.5],[704428.5,3688681.1],[704440.3,3688643.5],[704479.8,3688617.5],[704527.4,3688612.5],[704538.8,3688595.4],[704529.6,3688577.3],[704462.4,3688564.9],[704414.2,3688576.8],[704361.5,3688563.8],[704347.3,3688573.9],[704350.0,3688589.4],[704381.5,3688611.0],[704407.2,3688649.8],[704406.5,3688754.2]]]}},{"type":"Feature","properties":{},"geometry":{"type":"Polygon","coordinates":[[[708295.0,3689353.5],[708261.2,3689378.7],[708225.7,3689309.7],[708227.1,3689290.1],[708253.8,3689275.7],[708250.1,3689268.7],[708214.3,3689257.5],[708183.4,3689291.4],[708134.1,3689286.2],[708127.0,3689352.1],[708150.6,3689421.1],[708173.3,3689409.4],[708231.0,3689412.9],[708254.0,3689405.2],[708275.8,3689421.9],[708291.7,3689418.4],[708291.3,3689408.8],[708308.7,3689410.9],[708294.4,3689389.7],[708307.9,3689354.5],[708295.0,3689353.5]]]}},{"type":"Feature","properties":{},"geometry":{"type":"Polygon","coordinates":[[[708426.3,3689013.7],[708395.7,3688974.3],[708369.9,3688969.1],[708337.5,3688993.4],[708337.9,3689012.8],[708372.2,3689037.2],[708406.2,3689035.9],[708426.3,3689013.7]]]}},{"type":"Feature","properties":{},"geometry":{"type":"Polygon","coordinates":[[[708117.8,3689929.6],[708029.9,3689929.0],[708018.6,3689943.7],[707928.1,3689972.6],[707918.4,3689990.0],[707926.6,3690015.1],[707942.8,3690015.5],[707947.1,3690035.1],[707958.8,3690041.5],[707979.0,3690035.1],[708004.9,3690053.4],[708011.3,3690046.1],[707998.9,3690036.8],[707993.5,3690015.5],[708001.6,3690008.5],[708026.9,3689998.5],[708114.5,3690004.2],[708122.4,3689983.0],[708117.8,3689929.6]]]}},{"type":"Feature","properties":{},"geometry":{"type":"Polygon","coordinates":[[[705266.9,3689748.1],[705314.4,3689733.9],[705281.1,3689674.5],[705256.5,3689676.9],[705221.1,3689717.4],[705235.7,3689736.1],[705266.9,3689748.1]]]}},{"type":"Feature","properties":{},"geometry":{"type":"Polygon","coordinates":[[[704776.5,3688698.2],[704805.7,3688704.1],[704779.8,3688601.4],[704756.5,3688591.9],[704727.4,3688639.2],[704776.3,3688659.9],[704776.5,3688698.2]]]}},{"type":"Feature","properties":{},"geometry":{"type":"Polygon","coordinates":[[[702762.9,3686436.6],[702836.5,3686463.1],[702836.6,3686448.9],[702768.4,3686422.8],[702702.9,3686372.7],[702697.2,3686386.3],[702762.9,3686436.6]]]}},{"type":"Feature","properties":{},"geometry":{"type":"Polygon","coordinates":[[[704300.1,3689625.0],[704328.7,3689613.3],[704315.1,3689565.1],[704317.5,3689521.5],[704298.0,3689515.3],[704286.3,3689521.8],[704263.1,3689599.3],[704273.6,3689617.7],[704300.1,3689625.0]]]}},{"type":"Feature","properties":{},"geometry":{"type":"Polygon","coordinates":[[[707537.2,3689955.9],[707497.8,3689959.3],[707498.9,3689980.1],[707517.1,3690011.5],[707540.9,3690030.6],[707537.2,3689955.9]]]}},{"type":"Feature","properties":{"name":"Soil Conservation Service Site 18a Reservoir"},"geometry":{"type":"Polygon","coordinates":[[[707866.5,3692079.1],[707979.0,3692099.4],[707995.6,3692094.3],[708010.2,3692062.3],[707971.4,3692058.5],[707810.6,3691866.1],[707812.9,3691808.0],[707842.0,3691776.3],[707845.2,3691722.2],[707714.4,3691763.1],[707691.6,3691779.1],[707660.1,3691969.3],[707662.0,3691996.2],[707866.5,3692079.1]]]}},{"type":"Feature","properties":{},"geometry":{"type":"Polygon","coordinates":[[[708869.0,3691132.6],[708887.1,3691093.0],[708905.2,3691079.1],[708944.8,3691077.1],[708953.3,3691058.4],[708898.6,3690984.7],[708891.2,3690931.4],[708846.9,3690854.5],[708832.8,3690843.9],[708810.6,3690862.9],[708801.1,3690848.9],[708793.6,3690852.8],[708789.1,3690902.9],[708734.8,3691024.6],[708740.1,3691097.8],[708779.9,3691140.9],[708846.1,3691160.6],[708869.7,3691157.1],[708869.0,3691132.6]]]}},{"type":"Feature","properties":{},"geometry":{"type":"Polygon","coordinates":[[[705564.4,3690913.1],[705574.5,3690867.3],[705587.5,3690860.1],[705607.6,3690878.6],[705629.5,3690949.1],[705650.3,3690972.2],[705681.6,3690957.0],[705627.6,3690827.8],[705631.7,3690775.8],[705620.1,3690678.4],[705598.5,3690663.6],[705474.0,3690714.5],[705467.9,3691003.0],[705500.1,3691018.7],[705564.4,3690913.1]]]}},{"type":"Feature","properties":{"name":"Wilson Creek"},"geometry":{"type":"Polygon","coordinates":[[[708845.2,3686535.1],[708858.8,3686597.3],[708936.9,3686663.6],[708924.1,3686702.6],[708931.5,3686725.1],[708991.1,3686756.4],[708991.3,3686785.5],[708954.8,3686840.1],[708941.3,3686884.3],[708953.6,3686918.8],[708993.0,3686930.9],[708975.3,3686942.7],[708960.1,3686975.7],[708957.2,3687025.6],[708988.3,3687064.2],[708999.0,3687105.4],[709023.5,3687127.0],[709024.8,3687186.1],[709063.5,3687204.4],[709093.1,3687198.7],[709091.9,3687299.2],[709150.6,3687667.5],[709149.5,3687723.7],[709169.8,3687761.2],[709199.8,3687768.3],[709215.9,3687756.1],[709220.6,3687736.5],[709209.3,3687711.0],[709210.5,3687662.4],[709151.8,3687293.8],[709152.8,3687168.2],[709126.7,3687136.2],[709083.2,3687139.1],[709080.3,3687099.0],[709050.6,3687071.7],[709044.4,3687033.6],[709016.2,3687009.8],[709021.6,3686984.6],[709045.1,3686973.3],[709065.4,3686943.1],[709058.3,3686896.0],[709008.2,3686872.7],[709025.1,3686835.4],[709050.2,3686807.7],[709049.7,3686729.7],[709037.8,3686713.7],[708991.9,3686689.2],[708998.2,3686667.7],[708990.0,3686634.0],[708907.7,3686559.8],[708906.6,3686548.2],[708930.3,3686533.0],[708938.5,3686506.4],[708904.0,3686442.1],[708916.7,3686392.7],[708855.8,3686391.4],[708842.9,3686447.7],[708861.6,3686499.2],[708845.2,3686535.1]]]}},{"type":"Feature","properties":{},"geometry":{"type":"Polygon","coordinates":[[[709529.9,3686972.1],[709556.3,3686968.8],[709566.8,3686947.7],[709569.4,3686831.6],[709546.5,3686779.4],[709515.8,3686760.6],[709483.6,3686777.8],[709479.1,3686876.6],[709488.0,3686919.7],[709482.5,3686959.2],[709522.5,3686982.7],[709529.9,3686972.1]]]}},{"type":"Feature","properties":{"name":"Doe Branch"},"geometry":{"type":"Polygon","coordinates":[[[705061.2,3687319.5],[705092.0,3687329.3],[705109.1,3687377.5],[705152.7,3687446.9],[705166.8,3687497.7],[705234.0,3687569.4],[705278.1,3687660.8],[705322.9,3687675.5],[705385.5,3687669.8],[705432.0,3687690.9],[705492.5,3687701.0],[705509.3,3687719.1],[705542.1,3687729.3],[705570.3,3687762.7],[705591.7,3687772.9],[705668.1,3687744.9],[705694.0,3687763.0],[705753.9,3687765.9],[705792.4,3687836.0],[705794.7,3687870.3],[705813.4,3687886.4],[705811.2,3687909.3],[705822.2,3687932.1],[705855.3,3687945.6],[705881.1,3687997.3],[705903.8,3688000.4],[705920.5,3687988.9],[705925.7,3687966.6],[705906.0,3687909.0],[705876.3,3687879.2],[705846.2,3687808.5],[705787.9,3687714.5],[705746.8,3687699.5],[705715.7,3687702.9],[705672.8,3687680.9],[705602.6,3687707.9],[705582.6,3687680.3],[705513.2,3687644.3],[705466.5,3687638.1],[705399.0,3687610.3],[705322.7,3687613.1],[705283.5,3687535.5],[705218.2,3687462.5],[705209.6,3687426.2],[705136.4,3687287.2],[705076.0,3687247.8],[705021.0,3687230.7],[705003.0,3687245.0],[705000.3,3687267.8],[705016.3,3687288.1],[705061.2,3687319.5]]]}},{"type":"Feature","properties":{"name":"Doe Branch"},"geometry":{"type":"Polygon","coordinates":[[[707539.5,3689689.3],[707397.2,3689556.0],[707410.4,3689513.9],[707390.4,3689417.2],[707373.0,3689398.3],[707344.9,3689401.2],[707331.7,3689426.2],[707349.8,3689506.9],[707337.7,3689530.2],[707339.3,3689578.0],[707492.7,3689727.7],[707509.5,3689793.7],[707524.5,3689816.2],[707562.9,3689834.6],[707602.5,3689828.2],[707622.9,3689852.0],[707693.6,3689868.1],[707705.2,3689885.0],[707748.6,3689911.1],[707761.5,3689938.5],[707771.1,3690016.3],[707796.2,3690045.4],[707821.2,3690049.9],[707921.1,3690036.9],[708025.4,3690088.0],[708034.8,3690101.6],[708034.4,3690155.3],[708056.4,3690198.3],[708129.9,3690296.4],[708151.4,3690304.2],[708172.2,3690294.4],[708177.2,3690261.5],[708096.5,3690149.3],[708090.0,3690127.9],[708098.2,3690090.4],[708067.9,3690043.2],[707934.3,3689976.9],[707828.5,3689988.7],[707819.2,3689921.3],[707792.9,3689864.7],[707750.0,3689843.3],[707735.1,3689818.3],[707656.2,3689799.7],[707622.2,3689767.2],[707566.8,3689771.8],[707563.5,3689740.2],[707539.5,3689689.3]]]}},{"type":"Feature","properties":{"name":"Doe Branch"},"geometry":{"type":"Polygon","coordinates":[[[707373.3,3689382.3],[707345.1,3689385.0],[707331.9,3689407.0],[707336.7,3689442.7],[707355.8,3689455.5],[707378.3,3689451.0],[707390.4,3689434.8],[707391.6,3689407.1],[707373.3,3689382.3]]]}},{"type":"Feature","properties":{"name":"Doe Branch"},"geometry":{"type":"Polygon","coordinates":[[[707169.7,3689334.7],[707203.8,3689375.9],[707316.0,3689372.2],[707331.6,3689381.6],[707332.6,3689417.4],[707343.9,3689434.1],[707369.1,3689439.1],[707388.9,3689422.7],[707394.2,3689365.1],[707382.3,3689342.4],[707329.8,3689313.4],[707228.8,3689318.4],[707214.5,3689294.0],[707134.6,3689227.3],[707001.2,3689251.9],[706981.9,3689276.0],[706987.7,3689298.2],[707007.5,3689309.8],[707109.6,3689298.3],[707169.7,3689334.7]]]}},{"type":"Feature","properties":{"name":"Doe Branch"},"geometry":{"type":"Polygon","coordinates":[[[706941.4,3689278.3],[706956.0,3689308.3],[707016.3,3689309.7],[707037.5,3689295.3],[707040.7,3689272.5],[707026.8,3689254.2],[706966.5,3689252.8],[706941.4,3689278.3]]]}},{"type":"Feature","properties":{"name":"Doe Branch"},"geometry":{"type":"Polygon","coordinates":[[[706926.6,3689250.5],[706863.4,3689221.7],[706790.4,3689165.1],[706753.5,3689118.8],[706595.9,3689013.9],[706521.9,3688937.5],[706499.3,3688933.7],[706480.6,3688947.1],[706481.7,3688980.4],[706554.2,3689057.3],[706714.9,3689165.3],[706749.5,3689209.1],[706831.4,3689272.4],[706925.4,3689312.0],[706985.4,3689308.8],[706999.9,3689291.0],[706997.5,3689268.2],[706982.5,3689254.7],[706926.6,3689250.5]]]}},{"type":"Feature","properties":{"name":"Doe Branch"},"geometry":{"type":"Polygon","coordinates":[[[706486.9,3688924.5],[706467.1,3688944.7],[706471.2,3688970.0],[706497.7,3688991.8],[706520.6,3688989.2],[706534.9,3688971.3],[706533.7,3688951.1],[706514.7,3688929.6],[706486.9,3688924.5]]]}},{"type":"Feature","properties":{"name":"Doe Branch"},"geometry":{"type":"Polygon","coordinates":[[[706442.7,3688849.9],[706421.0,3688842.4],[706400.3,3688852.4],[706392.8,3688874.1],[706407.0,3688910.8],[706455.1,3688940.0],[706475.9,3688975.3],[706508.9,3688980.2],[706525.9,3688954.5],[706510.3,3688912.4],[706492.9,3688892.4],[706453.4,3688871.2],[706442.7,3688849.9]]]}},{"type":"Feature","properties":{"name":"Doe Branch"},"geometry":{"type":"Polygon","coordinates":[[[706419.5,3688816.6],[706391.9,3688830.3],[706387.8,3688852.9],[706406.5,3688897.6],[706429.1,3688901.6],[706447.9,3688888.6],[706445.6,3688837.3],[706419.5,3688816.6]]]}},{"type":"Feature","properties":{"name":"Doe Branch"},"geometry":{"type":"Polygon","coordinates":[[[706397.6,3688869.3],[706419.4,3688876.4],[706439.9,3688866.0],[706446.7,3688820.9],[706436.8,3688786.4],[706420.1,3688767.2],[706316.4,3688727.2],[706287.0,3688736.7],[706279.6,3688758.4],[706289.8,3688779.0],[706339.9,3688806.2],[706384.3,3688818.0],[706397.6,3688869.3]]]}},{"type":"Feature","properties":{"name":"Doe Branch"},"geometry":{"type":"Polygon","coordinates":[[[706271.4,3688726.7],[706263.0,3688756.3],[706277.0,3688774.5],[706317.4,3688785.4],[706335.6,3688771.4],[706338.5,3688748.6],[706327.0,3688732.0],[706301.5,3688720.1],[706271.4,3688726.7]]]}},{"type":"Feature","properties":{},"geometry":{"type":"Polygon","coordinates":[[[706492.2,3690088.3],[706503.4,3690065.6],[706495.5,3689967.8],[706435.6,3689906.6],[706421.0,3689875.7],[706397.1,3689863.2],[706381.2,3689871.3],[706373.8,3689888.8],[706413.6,3690073.7],[706436.7,3690100.8],[706468.4,3690103.6],[706492.2,3690088.3]]]}},{"type":"Feature","properties":{},"geometry":{"type":"Polygon","coordinates":[[[704753.4,3686910.9],[704794.6,3686929.5],[704848.8,3686924.6],[704873.8,3686904.9],[704860.1,3686866.9],[704830.2,3686851.0],[704802.9,3686850.8],[704786.9,3686880.6],[704752.7,3686891.1],[704753.4,3686910.9]]]}},{"type":"Feature","properties":{},"geometry":{"type":"Polygon","coordinates":[[[705177.4,3686597.4],[705179.1,3686649.0],[705238.1,3686651.4],[705262.0,3686635.7],[705211.4,3686574.1],[705199.3,3686572.0],[705177.4,3686597.4]]]}},{"type":"Feature","properties":{},"geometry":{"type":"Polygon","coordinates":[[[705169.3,3687648.4],[705195.9,3687639.5],[705204.0,3687623.1],[705197.5,3687599.8],[705204.4,3687535.5],[705183.2,3687522.6],[705098.2,3687556.9],[705077.8,3687576.1],[705113.8,3687626.6],[705156.9,3687608.6],[705158.5,3687636.0],[705169.3,3687648.4]]]}},{"type":"Feature","properties":{"name":"Doe Branch"},"geometry":{"type":"Polygon","coordinates":[[[706121.0,3688220.5],[706111.2,3688254.9],[706166.9,3688308.0],[706194.9,3688311.6],[706211.6,3688295.9],[706212.3,3688272.9],[706156.7,3688219.8],[706121.0,3688220.5]]]}},{"type":"Feature","properties":{"name":"Doe Branch"},"geometry":{"type":"Polygon","coordinates":[[[706203.3,3688740.7],[706232.3,3688769.5],[706292.9,3688778.5],[706317.4,3688764.4],[706321.7,3688744.6],[706312.5,3688726.7],[706267.3,3688713.1],[706272.2,3688668.6],[706253.2,3688642.5],[706290.6,3688497.2],[706260.5,3688434.6],[706275.8,3688372.8],[706265.1,3688303.7],[706248.5,3688277.1],[706182.2,3688253.6],[706159.8,3688266.2],[706154.7,3688288.6],[706166.9,3688308.0],[706207.3,3688327.1],[706202.1,3688360.9],[706215.1,3688381.8],[706196.3,3688438.1],[706219.9,3688493.1],[706203.4,3688599.7],[706182.0,3688615.7],[706167.5,3688664.4],[706180.0,3688687.7],[706202.6,3688697.7],[706203.3,3688740.7]]]}},{"type":"Feature","properties":{"name":"Ramble Pond"},"geometry":{"type":"Polygon","coordinates":[[[708289.8,3692256.5],[708314.9,3692313.6],[708347.6,3692342.8],[708429.7,3692366.7],[708428.0,3692353.0],[708368.4,3692313.0],[708351.4,3692288.5],[708341.5,3692246.1],[708314.0,3692236.2],[708293.8,3692242.5],[708289.8,3692256.5]]]}},{"type":"Feature","properties":{"name":"Wilson Creek"},"geometry":{"type":"Polygon","coordinates":[[[709506.9,3688622.9],[709500.5,3688569.8],[709420.6,3688458.8],[709339.1,3688384.0],[709333.6,3688248.2],[709303.0,3688190.1],[709270.6,3688182.2],[709250.9,3688212.1],[709275.5,3688264.3],[709273.2,3688378.4],[709286.7,3688414.1],[709375.1,3688498.0],[709443.2,3688590.8],[709432.9,3688788.7],[709394.7,3688912.4],[709390.9,3689022.5],[709410.6,3689046.1],[709433.5,3689044.8],[709448.8,3689027.7],[709454.5,3688918.8],[709491.1,3688803.6],[709506.9,3688622.9]]]}},{"type":"Feature","properties":{"name":"Wilson Creek"},"geometry":{"type":"Polygon","coordinates":[[[709175.7,3687828.1],[709178.2,3687873.6],[709236.2,3687903.5],[709199.2,3687938.9],[709201.8,3687982.3],[709240.8,3688027.7],[709193.1,3688052.0],[709171.1,3688105.8],[709223.1,3688197.5],[709265.2,3688236.0],[709287.9,3688239.6],[709307.9,3688223.6],[709309.3,3688200.6],[709269.3,3688158.7],[709234.8,3688098.8],[709298.2,3688066.5],[709309.6,3688049.0],[709307.1,3688010.7],[709261.1,3687963.5],[709294.1,3687928.8],[709295.0,3687882.3],[709282.2,3687862.1],[709241.4,3687842.0],[709262.4,3687818.5],[709261.3,3687783.4],[709202.6,3687721.6],[709180.1,3687726.4],[709167.6,3687745.6],[709179.4,3687781.3],[709197.7,3687800.2],[709175.7,3687828.1]]]}},{"type":"Feature","properties":{"name":"Wilson Creek"},"geometry":{"type":"Polygon","coordinates":[[[709190.5,3687709.7],[709165.7,3687723.3],[709162.2,3687748.7],[709180.6,3687776.2],[709203.2,3687780.5],[709222.2,3687767.5],[709226.9,3687747.9],[709215.6,3687722.8],[709190.5,3687709.7]]]}},{"type":"Feature","properties":{"name":"Doe Branch"},"geometry":{"type":"Polygon","coordinates":[[[705900.1,3688086.4],[705914.8,3688112.5],[706009.3,3688160.9],[706035.5,3688202.0],[706054.8,3688216.4],[706083.7,3688220.9],[706124.3,3688270.2],[706144.1,3688273.8],[706161.8,3688264.0],[706166.2,3688231.0],[706121.5,3688171.5],[706079.0,3688160.3],[706045.2,3688112.8],[705997.5,3688081.4],[705962.3,3688072.0],[705967.1,3688049.4],[705954.0,3687994.9],[705915.9,3687948.9],[705891.3,3687941.8],[705871.8,3687953.9],[705866.5,3687976.2],[705905.9,3688043.2],[705900.1,3688086.4]]]}},{"type":"Feature","properties":{},"geometry":{"type":"Polygon","coordinates":[[[708647.6,3691509.8],[708656.2,3691498.8],[708636.7,3691452.3],[708651.1,3691409.9],[708644.2,3691380.1],[708617.3,3691398.3],[708603.7,3691427.1],[708567.9,3691427.7],[708558.1,3691447.6],[708561.7,3691463.3],[708595.8,3691489.6],[708600.4,3691511.6],[708647.6,3691509.8]]]}},{"type":"Feature","properties":{},"geometry":{"type":"Polygon","coordinates":[[[704105.3,3690178.6],[704078.4,3690140.7],[704015.3,3690142.1],[704041.0,3690182.9],[704078.2,3690196.1],[704089.7,3690246.4],[704105.5,3690247.9],[704113.0,3690229.2],[704105.3,3690178.6]]]}},{"type":"Feature","properties":{},"geometry":{"type":"Polygon","coordinates":[[[704855.7,3689673.2],[704848.8,3689652.9],[704761.8,3689622.0],[704755.8,3689635.3],[704775.1,3689657.6],[704777.8,3689692.7],[704812.5,3689695.9],[704855.7,3689673.2]]]}},{"type":"Feature","properties":{"name":"Doe Branch"},"geometry":{"type":"Polygon","coordinates":[[[705002.8,3687221.9],[704986.6,3687245.0],[704994.7,3687269.4],[705025.5,3687289.4],[705047.7,3687283.2],[705058.9,3687263.2],[705054.5,3687243.5],[705033.6,3687224.1],[705002.8,3687221.9]]]}},{"type":"Feature","properties":{"name":"Doe Branch"},"geometry":{"type":"Polygon","coordinates":[[[704872.9,3686367.1],[704859.2,3686413.2],[704850.9,3686570.9],[704855.9,3686763.7],[704873.3,3686858.9],[704876.2,3687071.5],[704894.6,3687115.2],[704971.7,3687193.8],[704991.5,3687265.4],[705019.4,3687278.5],[705037.6,3687269.8],[705046.2,3687251.5],[705025.3,3687164.2],[704937.2,3687064.6],[704933.4,3686854.2],[704916.2,3686758.2],[704911.0,3686601.2],[704919.0,3686422.5],[704943.0,3686387.5],[704956.7,3686332.7],[704995.8,3686309.3],[704900.1,3686307.3],[704890.6,3686350.9],[704872.9,3686367.1]]]}}]}