{"type": "FeatureCollection", "features": [{"type": "Feature", "properties": {"name": "Rieselfeld"}, "geometry": {"type": "Polygon", "coordinates": [[[407917.8305546919, 5318066.435154589], [407919.62315281614, 5318014.878280131], [407929.28494074463, 5317941.817026635], [407945.5403443545, 5317909.194583106], [407959.1483341245, 5317884.541128741], [407995.2876283339, 5317832.934781445], [408077.1507235526, 5317818.584783765], [408192.84288621106, 5317825.96331693], [408351.2138823051, 5317769.184647737], [408514.47648619354, 5317711.13193939], [408640.2689775024, 5317689.265241034], [408484.3951312545, 5317117.643955694], [408006.8422790645, 5317251.8776074415], [407973.61676629336, 5317194.433246076], [407947.20454676053, 5316863.9757974055], [407931.2170671233, 5316829.646241431], [407943.234226565, 5316817.780837478], [407978.50683617435, 5316782.919864692], [407991.99005692423, 5316772.665332456], [408012.7483300717, 5316761.9387112595], [408039.4159997762, 5316747.460123657], [408074.409075995, 5316732.859696028], [408139.3521741646, 5316708.831701907], [408157.9379533435, 5316703.143039181], [408278.93986112555, 5316622.858299962], [408337.95877843763, 5316587.03176029], [408352.0278932093, 5316578.825438766], [408421.0285513752, 5316538.582863636], [408513.0220867838, 5316485.779860793], [408573.688310036, 5316466.093919738], [408614.9945113943, 5316454.142449835], [408639.27128101373, 5316450.566147636], [408680.9520008289, 5316453.728485656], [408835.07576315553, 5316479.387446816], [408905.5872912912, 5316483.850975372], [408913.5774234383, 5316484.691613758], [409095.946720705, 5316462.473601167], [409555.6581838176, 5316460.306406478], [409607.7936075205, 5316460.709649015], [409619.2957716593, 5316461.396015051], [409624.3384911887, 5316478.392581652], [409640.8210998406, 5316486.893843945], [409662.42667857296, 5316478.083235811], [409668.2625672476, 5316465.7739225235], [410019.453797239, 5316463.62609961], [410305.89361226273, 5316464.098909205], [410315.9108576391, 5316468.622962923], [410377.12353301136, 5316473.1160998065], [410396.33989479253, 5316486.657374232], [410400.4781709468, 5316485.503434235], [410409.02971102187, 5316483.124577549], [410416.3278038225, 5316532.970787754], [410420.1118869779, 5316570.398442648], [410421.097007408, 5316636.5182647], [410419.9354133933, 5316682.660888507], [410417.9531648994, 5316721.623584983], [410397.11173266, 5316949.958516817], [410392.59348373814, 5316994.219118619], [410385.20866257267, 5317128.86141374], [410387.7525479876, 5317198.736798099], [410393.79923656804, 5317259.7529084515], [410413.3074616793, 5317349.174520136], [410432.64302370977, 5317416.05353308], [410450.86227019207, 5317473.078063768], [410467.9970704005, 5317519.891860925], [410475.7550870124, 5317541.393691211], [410496.46291523485, 5317591.553744333], [410569.6742108343, 5317726.464731082], [410609.16991057346, 5317783.63682208], [410650.7637199087, 5317843.855976117], [410710.3213948072, 5317918.070634862], [410769.16982129076, 5317987.060764814], [410784.4925975143, 5318000.530236365], [410765.4572247034, 5318044.404447715], [410721.5097566174, 5318042.374266065], [410568.60777703824, 5318343.610480879], [410534.8876442177, 5318366.39155973], [410488.93107849185, 5318390.397275525], [410392.80740595574, 5318372.562453803], [410345.0314432784, 5318344.925612051], [410146.75071113894, 5318660.733905302], [409988.056582646, 5318882.012466144], [409889.3196019038, 5319016.775932544], [409886.8336962159, 5319014.257981099], [409894.97293894883, 5318976.799151849], [409856.0204144808, 5318868.640364961], [409833.0396933083, 5318881.941174491], [409824.7300221437, 5318873.822669753], [409810.9787188958, 5318851.181705571], [409852.3286074815, 5318821.58402731], [409880.0539865361, 5318818.781256236], [409898.0948556836, 5318810.082746504], [409901.3425932848, 5318764.607396859], [409879.04108080827, 5318664.758724511], [409915.9162391836, 5318635.098322313], [409900.85438463005, 5318593.578638971], [409871.06687366695, 5318512.990985065], [409846.19020052615, 5318546.276599205], [409825.8694727505, 5318586.572436621], [409814.30351106275, 5318608.643464744], [409805.9002487364, 5318617.402194301], [409796.0840982995, 5318624.059746808], [409728.10758267506, 5318644.381832641], [409686.585760376, 5318654.539270868], [409673.9761388913, 5318655.248817655], [409661.0109835103, 5318652.795606651], [409650.5018166088, 5318649.992536671], [409597.93786433915, 5318632.46475062], [409588.8309445901, 5318629.661969666], [409584.2750198315, 5318630.7119449945], [409578.3208525604, 5318631.072427069], [409569.4561617151, 5318634.658201592], [409564.88982319273, 5318630.305442649], [409608.12477430445, 5318586.791105549], [409633.37764831714, 5318562.347713082], [409687.78173306456, 5318507.541315861], [409728.6098504161, 5318466.444822568], [409824.2463478371, 5318415.1279103765], [409783.97133225814, 5318386.4997356115], [409699.61513556057, 5318327.780954091], [409691.1117334367, 5318322.111425976], [409624.89592087315, 5318288.099947792], [409578.73207244574, 5318266.502823851], [409520.7276148573, 5318225.359573742], [409425.20845355187, 5318183.807346429], [409304.1854970923, 5318150.930139411], [409283.3343249144, 5318140.93136746], [409204.83146696247, 5318094.889698816], [409188.7452600622, 5318079.602072096], [409166.53494295606, 5318005.3348934455], [409147.87453920254, 5317948.498913725], [409066.59430966986, 5317880.857901578], [409007.5550132281, 5317918.100608113], [409016.1642556481, 5317929.90413512], [408758.43360032584, 5318091.107527053], [408447.3567830522, 5318177.764647074], [408109.651545741, 5318213.647654347], [408054.45872639946, 5318139.611546109], [408027.72906148963, 5318122.296132926], [407928.5841777392, 5318089.030904733], [407917.8305546919, 5318066.435154589]]]}}, {"type": "Feature", "properties": {"name": "Vauban"}, "geometry": {"type": "Polygon", "coordinates": [[[411657.18832998304, 5314355.090092209], [411668.1214404033, 5314350.553329442], [411693.54472297756, 5314334.9218938425], [411743.70258231414, 5314308.372385812], [411768.10401046445, 5314295.20268111], [411792.7713583545, 5314279.894561664], [411804.39112757996, 5314269.978076001], [411813.0200808169, 5314255.838550404], [411820.10225857154, 5314239.643876797], [411834.4420755935, 5314218.21313829], [411837.274231123, 5314211.588547588], [411857.5698044065, 5314195.925249941], [411877.17886831757, 5314183.196283112], [411893.11244398623, 5314169.789934981], [411907.59815942793, 5314157.862107321], [411914.7926572242, 5314148.980762517], [411930.4035027278, 5314136.424346662], [411946.6340223164, 5314123.8696118295], [411952.98671723576, 5314121.437878577], [411979.7706227886, 5314118.0266467715], [411999.50422723626, 5314111.944109573], [412027.4260272444, 5314096.042552878], [412058.7900943221, 5314084.590879965], [412084.2996229434, 5314073.973636204], [412111.1601806772, 5314056.00985073], [412139.5803944055, 5314043.869867948], [412164.3959966798, 5314036.187321397], [412189.9279681965, 5314027.0154095795], [412209.63868385775, 5314020.867256003], [412236.21904474706, 5314010.923615258], [412255.65292361105, 5314001.7894037245], [412280.88913691393, 5313979.560085035], [412290.13978072006, 5313975.250284148], [412331.3929058386, 5313944.472842819], [412339.0195627024, 5313944.301100801], [412349.52145069605, 5313939.305330042], [412355.2410081446, 5313935.960992807], [412361.62867071177, 5313928.93792211], [412379.49658429786, 5313914.98103159], [412389.39636694663, 5313915.052676553], [412399.28303470253, 5313908.3765999265], [412406.69237229455, 5313906.184986645], [412412.59707893815, 5313902.248696903], [412417.417288625, 5313885.911376208], [412422.21662298613, 5313874.087825522], [412423.7328225523, 5313871.685747616], [412490.78811401286, 5313987.304028199], [412556.1615485542, 5313955.539016478], [412559.1570986103, 5313954.6930945385], [412596.6863246781, 5313948.964865146], [412674.4485923813, 5313939.068951536], [412679.20019287046, 5313938.830111679], [412684.62573460606, 5313960.381199864], [412691.6306814444, 5313986.1549727395], [412702.5041173834, 5314034.681860916], [412712.0156393711, 5314069.711329025], [412713.76842867956, 5314073.553412045], [412716.01520533644, 5314078.466338992], [412734.40072462836, 5314107.98071707], [412742.12456923694, 5314119.158336011], [412753.4126513067, 5314135.495737975], [412764.3827257371, 5314151.048684274], [412759.20487932453, 5314154.673442653], [412757.2670183716, 5314154.869569537], [412755.31995966344, 5314155.443809486], [412753.5776042312, 5314156.226167239], [412752.0172261406, 5314157.194753418], [412750.853855656, 5314158.74651486], [412738.6215970965, 5314183.03329911], [412715.7040522889, 5314230.227239305], [412704.6344188142, 5314242.067828744], [412697.30996878794, 5314241.467449837], [412680.8922259009, 5314239.79329758], [412661.947616122, 5314233.933130467], [412636.68313800136, 5314239.563735162], [412602.84653811855, 5314247.47017149], [412588.3921814066, 5314250.724589029], [412591.06064919825, 5314278.9764778465], [412593.02343586495, 5314299.101541648], [412594.02778399084, 5314314.11628815], [412594.90894880984, 5314327.40979192], [412597.6974980084, 5314366.52103852], [412599.98862958467, 5314388.608804677], [412603.0189778465, 5314400.391129025], [412570.9489950704, 5314408.0708505595], [412554.5012094537, 5314413.234400301], [412538.1270963742, 5314417.841034799], [412515.78626265016, 5314425.217581741], [412478.8515367718, 5314449.213527261], [412440.22403519857, 5314471.33448843], [412411.77719852934, 5314484.07375312], [412388.30789069243, 5314491.33457971], [412305.0571458329, 5314508.899931613], [412262.8996512244, 5314523.649827481], [412231.3308235905, 5314543.0743827475], [412213.4981569651, 5314560.166235865], [412181.7388824366, 5314545.076034964], [412111.14198113757, 5314520.651625168], [412075.82314513344, 5314510.052000263], [412054.56722918985, 5314505.329722206], [411966.52514993714, 5314483.841735437], [411855.2612886831, 5314464.834032755], [411821.9736193638, 5314459.218559111], [411665.5282736145, 5314440.328867391], [411657.18832998304, 5314355.090092209]]]}}]}