{"type":"FeatureCollection","crs":{"type":"name","properties":{"name":"urn:ogc:def:crs:EPSG::32736"}},"metadata":{"crs":"EPSG:32736","source":"OpenStreetMap via Overpass (ODbL)","queries":"isobenefit_qgis.osm_queries.build_query('water')"},"features":[{"type":"Feature","properties":{"name":"Pomd Ruhondo"},"geometry":{"type":"Polygon","coordinates":[[[182656.4,9783500.4],[182674.0,9783519.5],[182710.1,9783532.5],[182738.5,9783516.5],[182721.2,9783466.4],[182712.0,9783474.0],[182726.2,9783513.2],[182717.3,9783512.2],[182715.2,9783522.3],[182697.6,9783496.1],[182706.3,9783483.7],[182685.3,9783481.1],[182683.1,9783467.6],[182656.4,9783500.4]]]}},{"type":"Feature","properties":{"name":"Pond Imema"},"geometry":{"type":"Polygon","coordinates":[[[184090.7,9782726.8],[184112.2,9782739.9],[184112.9,9782757.7],[184086.6,9782758.8],[184057.9,9782788.4],[184014.5,9782799.1],[183988.2,9782785.9],[183992.2,9782793.5],[184057.9,9782818.7],[184092.2,9782773.1],[184121.7,9782764.0],[184116.9,9782733.6],[184078.8,9782712.1],[184042.5,9782730.3],[184053.6,9782745.3],[184090.7,9782726.8]]]}},{"type":"Feature","properties":{},"geometry":{"type":"Polygon","coordinates":[[[186960.9,9781243.7],[186939.0,9781261.5],[186940.1,9781287.1],[186962.4,9781309.8],[186985.4,9781309.9],[187001.7,9781293.8],[187002.7,9781273.6],[186987.9,9781252.0],[186960.9,9781243.7]]]}},{"type":"Feature","properties":{"name":"Pond Muhanzi"},"geometry":{"type":"Polygon","coordinates":[[[182144.8,9783864.6],[182167.2,9783844.1],[182082.1,9783861.2],[182068.1,9783878.1],[182068.4,9783909.4],[182045.3,9783881.9],[182021.7,9783891.2],[182074.7,9783929.6],[182102.5,9783924.5],[182102.2,9783915.7],[182086.3,9783910.1],[182090.5,9783898.3],[182144.8,9783864.6]]]}},{"type":"Feature","properties":{},"geometry":{"type":"Polygon","coordinates":[[[182347.8,9783910.8],[182347.8,9783891.2],[182325.0,9783895.1],[182319.5,9783881.4],[182341.1,9783880.8],[182354.3,9783868.6],[182345.1,9783857.6],[182301.4,9783869.4],[182284.7,9783857.5],[182267.5,9783867.8],[182257.0,9783856.8],[182246.2,9783883.1],[182236.7,9783877.9],[182243.8,9783858.3],[182234.9,9783856.8],[182214.8,9783879.7],[182231.7,9783899.6],[182229.8,9783914.6],[182216.1,9783924.0],[182347.8,9783910.8]]]}}]}