{"type":"FeatureCollection","crs":{"type":"name","properties":{"name":"urn:ogc:def:crs:EPSG::27700"}},"metadata":{"crs":"EPSG:27700","source":"OpenStreetMap via Overpass (ODbL)","queries":"isobenefit_qgis.osm_queries.build_query('water')"},"features":[{"type":"Feature","properties":{"name":"Turkey Brook"},"geometry":{"type":"Polygon","coordinates":[[[530470.2,200382.8],[530560.4,200272.6],[530589.1,200197.7],[530570.3,200153.8],[530578.2,200091.3],[530517.9,200089.8],[530509.3,200161.6],[530524.1,200194.0],[530507.3,200243.2],[530427.2,200340.8],[530344.8,200412.0],[530290.8,200424.7],[530275.6,200442.0],[530277.1,200464.9],[530294.3,200480.1],[530362.8,200469.9],[530470.2,200382.8]]]}},{"type":"Feature","properties":{"name":"Cuffley Brook"},"geometry":{"type":"Polygon","coordinates":[[[531095.3,201511.1],[531086.0,201490.1],[531064.6,201481.9],[531041.7,201493.5],[531020.6,201544.8],[530993.2,201580.2],[531001.5,201601.6],[531022.5,201610.9],[531066.2,201585.2],[531095.3,201511.1]]]}},{"type":"Feature","properties":{"name":"Cuffley Brook"},"geometry":{"type":"Polygon","coordinates":[[[531040.9,201494.6],[531035.8,201516.9],[531048.0,201536.4],[531081.3,201537.3],[531178.7,201457.0],[531202.1,201410.8],[531252.9,201378.2],[531262.6,201344.0],[531305.7,201308.0],[531346.4,201295.5],[531363.8,201267.1],[531387.7,201251.9],[531415.4,201190.6],[531479.5,201123.3],[531492.8,201042.6],[531544.5,200968.6],[531607.3,200907.3],[531683.0,200810.3],[531687.4,200790.6],[531676.1,200770.6],[531656.9,200764.3],[531638.1,200771.5],[531563.1,200866.6],[531495.9,200932.7],[531436.4,201019.1],[531425.2,201097.0],[531366.0,201154.8],[531350.5,201198.6],[531316.7,201208.6],[531303.2,201245.0],[531261.5,201266.7],[531212.4,201309.9],[531201.3,201337.1],[531151.7,201369.9],[531138.9,201410.0],[531040.9,201494.6]]]}},{"type":"Feature","properties":{"name":"Turkey Brook"},"geometry":{"type":"Polygon","coordinates":[[[528703.2,200472.8],[528850.5,200530.0],[529137.1,200606.2],[529315.2,200636.4],[529486.5,200678.0],[529506.3,200673.9],[529519.0,200658.2],[529516.4,200632.7],[529497.8,200619.1],[529326.3,200577.4],[529151.5,200548.0],[528866.9,200472.3],[528728.2,200418.2],[528338.7,200220.3],[528309.1,200272.7],[528703.2,200472.8]]]}},{"type":"Feature","properties":{"name":"Hempshill Brook"},"geometry":{"type":"Polygon","coordinates":[[[528788.0,202966.8],[528956.0,202916.5],[529117.2,202964.8],[529269.3,202866.9],[529462.0,202791.1],[529514.2,202738.2],[529587.6,202686.4],[529665.3,202445.9],[529677.9,202325.8],[529650.9,202310.9],[529625.0,202327.7],[529606.9,202431.5],[529533.9,202655.1],[529476.6,202691.4],[529427.9,202741.4],[529242.7,202812.8],[529106.0,202903.0],[528958.3,202855.5],[528847.8,202881.1],[528786.0,202906.2],[528561.5,202856.2],[528531.2,202870.1],[528527.6,202892.8],[528541.1,202911.4],[528788.0,202966.8]]]}},{"type":"Feature","properties":{"name":"Hempshill Brook"},"geometry":{"type":"Polygon","coordinates":[[[528368.4,202270.2],[528529.7,202331.7],[528926.3,202323.2],[529303.5,202388.2],[529633.5,202372.5],[529651.6,202363.4],[529659.8,202345.0],[529652.6,202323.2],[529632.1,202312.8],[529308.6,202328.2],[528930.7,202263.2],[528539.5,202272.3],[528381.2,202211.1],[528276.6,202214.1],[528226.2,202200.7],[528224.6,202262.2],[528265.8,202273.3],[528368.4,202270.2]]]}},{"type":"Feature","properties":{"name":"Northaw Brook"},"geometry":{"type":"Polygon","coordinates":[[[528372.1,201546.0],[528501.6,201455.0],[528557.7,201437.9],[528640.2,201433.9],[528823.2,201353.4],[528938.4,201313.6],[529076.7,201307.7],[529455.6,201357.5],[529529.5,201390.0],[529810.5,201558.6],[530106.0,201787.2],[530134.3,201788.0],[530150.6,201764.9],[530146.2,201745.1],[530114.7,201711.3],[530017.3,201648.3],[529846.7,201510.5],[529555.0,201335.7],[529468.6,201298.8],[529079.4,201247.6],[528925.8,201254.7],[528801.9,201297.3],[528623.6,201376.0],[528549.3,201378.2],[528476.6,201400.0],[528343.3,201493.4],[528243.0,201541.1],[528240.9,201620.7],[528247.0,201602.1],[528372.1,201546.0]]]}},{"type":"Feature","properties":{},"geometry":{"type":"Polygon","coordinates":[[[528237.2,202792.8],[528246.8,202758.7],[528229.1,202706.9],[528213.6,202691.7],[528211.8,202805.4],[528237.2,202792.8]]]}},{"type":"Feature","properties":{},"geometry":{"type":"Polygon","coordinates":[[[531387.9,203990.1],[531329.3,203879.7],[531249.2,203825.2],[531044.3,203741.1],[530982.2,203625.3],[530912.4,203553.0],[530870.8,203487.1],[530860.4,203427.4],[530935.6,203402.3],[530946.5,203382.1],[530939.9,203360.1],[530910.8,203349.7],[530807.5,203382.9],[530796.4,203408.5],[530815.4,203511.6],[530865.2,203590.3],[530932.8,203659.8],[531000.0,203784.3],[531221.6,203878.5],[531284.8,203921.3],[531333.6,204015.7],[531361.4,204096.2],[531377.1,204180.3],[531401.5,204199.2],[531423.6,204192.9],[531434.8,204172.9],[531419.5,204081.0],[531387.9,203990.1]]]}},{"type":"Feature","properties":{"name":"Cuffley Brook"},"geometry":{"type":"Polygon","coordinates":[[[530958.7,201740.8],[530972.6,201820.7],[531020.9,201892.3],[531028.3,202031.2],[530999.4,202068.5],[530976.0,202194.6],[530952.7,202411.8],[531052.1,202873.5],[531035.2,202921.1],[531035.8,202979.8],[531017.2,203024.4],[531010.5,203069.3],[531016.3,203089.7],[531001.6,203114.6],[531009.3,203146.6],[531002.4,203219.6],[530974.0,203234.7],[530965.1,203255.3],[530972.4,203278.9],[530994.0,203295.5],[530996.6,203322.9],[530894.0,203359.4],[530889.8,203392.4],[530915.7,203409.1],[531013.9,203387.2],[531044.1,203372.7],[531057.2,203354.2],[531062.6,203288.7],[531050.9,203261.8],[531080.2,203189.1],[531066.1,203124.4],[531078.9,203037.7],[531102.1,202985.1],[531095.5,202925.3],[531112.3,202877.3],[531012.8,202408.6],[531035.4,202202.8],[531058.6,202083.7],[531080.3,202061.9],[531089.6,202035.5],[531080.0,201879.2],[531024.1,201782.0],[531027.3,201717.0],[531018.3,201688.4],[531053.1,201582.5],[531036.1,201553.8],[531013.2,201552.6],[530996.1,201567.9],[530959.0,201677.6],[530958.7,201740.8]]]}},{"type":"Feature","properties":{},"geometry":{"type":"Polygon","coordinates":[[[528989.9,204601.5],[528991.2,204632.3],[529052.3,204635.7],[529074.0,204612.5],[529142.8,204573.3],[529167.0,204536.1],[529236.6,204497.5],[529299.6,204477.4],[529358.5,204433.1],[529433.3,204413.2],[529485.6,204380.6],[529566.9,204369.2],[529673.8,204323.1],[529776.3,204309.6],[529804.2,204297.4],[529887.6,204327.3],[529972.4,204304.5],[530035.2,204264.8],[530110.8,204251.7],[530323.1,204241.1],[530381.0,204202.9],[530406.6,204159.9],[530407.1,204139.5],[530392.1,204101.5],[530363.0,204091.2],[530341.2,204109.2],[530336.2,204160.5],[530301.3,204183.5],[530106.3,204191.9],[530020.6,204206.4],[529954.3,204244.0],[529883.0,204265.5],[529800.0,204234.9],[529761.0,204251.3],[529657.5,204265.2],[529550.5,204310.6],[529465.1,204323.4],[529406.6,204355.8],[529336.2,204376.1],[529268.6,204425.4],[529230.1,204433.6],[529131.7,204487.0],[529103.3,204522.6],[528989.9,204601.5]]]}},{"type":"Feature","properties":{},"geometry":{"type":"Polygon","coordinates":[[[529305.7,204488.1],[529277.3,204446.3],[529258.0,204433.8],[529235.6,204438.5],[529223.9,204472.3],[529252.5,204516.3],[529299.5,204642.1],[529362.7,204643.7],[529305.7,204488.1]]]}},{"type":"Feature","properties":{},"geometry":{"type":"Polygon","coordinates":[[[530815.6,204598.3],[530736.1,204559.0],[530709.1,204465.3],[530680.4,204439.0],[530634.4,204368.0],[530569.0,204311.4],[530398.4,204126.4],[530376.7,204119.0],[530358.1,204127.1],[530348.9,204145.1],[530354.9,204167.3],[530526.2,204353.5],[530589.8,204408.6],[530634.4,204478.1],[530656.2,204496.5],[530689.2,204601.1],[530770.1,204640.6],[530787.4,204680.6],[530852.5,204679.8],[530815.6,204598.3]]]}},{"type":"Feature","properties":{},"geometry":{"type":"Polygon","coordinates":[[[531371.0,201681.6],[531310.2,201606.0],[531248.8,201559.7],[531143.9,201433.9],[531122.2,201426.4],[531101.6,201436.5],[531095.9,201466.8],[531140.4,201527.2],[531208.0,201603.9],[531267.5,201648.4],[531331.1,201726.8],[531504.0,201846.3],[531574.0,201862.7],[531599.4,201850.2],[531604.6,201827.9],[531592.5,201808.4],[531528.7,201791.1],[531371.0,201681.6]]]}},{"type":"Feature","properties":{},"geometry":{"type":"Polygon","coordinates":[[[531844.4,200962.0],[531753.7,200903.8],[531590.4,200857.4],[531559.9,200871.0],[531556.8,200896.4],[531571.8,200913.8],[531725.4,200956.9],[531803.9,201006.7],[531914.9,201147.0],[532007.3,201244.0],[532099.8,201314.8],[532132.8,201310.5],[532143.1,201290.0],[532135.7,201268.2],[532047.6,201199.4],[531959.7,201107.0],[531844.4,200962.0]]]}},{"type":"Feature","properties":{"name":"Theobalds Brook"},"geometry":{"type":"Polygon","coordinates":[[[532374.1,202703.2],[532393.3,202666.8],[532519.0,202588.9],[532610.2,202580.5],[532682.7,202545.9],[532707.0,202524.9],[532821.8,202486.7],[532823.6,202419.2],[532771.1,202444.5],[532678.9,202471.0],[532592.6,202522.6],[532497.1,202532.1],[532353.1,202621.0],[532315.6,202686.7],[532298.0,202768.7],[532301.5,202788.6],[532319.7,202802.7],[532342.5,202799.8],[532367.5,202752.9],[532374.1,202703.2]]]}},{"type":"Feature","properties":{},"geometry":{"type":"Polygon","coordinates":[[[532839.1,201826.6],[532840.7,201766.0],[532666.4,201737.7],[532637.5,201758.6],[532639.5,201781.5],[532657.1,201796.3],[532839.1,201826.6]]]}},{"type":"Feature","properties":{},"geometry":{"type":"Polygon","coordinates":[[[532746.8,203943.2],[532749.4,203963.2],[532764.2,203977.0],[532782.7,203978.8],[532784.9,203891.9],[532776.0,203913.2],[532746.8,203943.2]]]}},{"type":"Feature","properties":{},"geometry":{"type":"Polygon","coordinates":[[[532322.2,203488.5],[532350.2,203507.8],[532405.2,203514.6],[532489.3,203549.2],[532583.6,203609.6],[532645.5,203630.4],[532671.3,203657.7],[532734.6,203646.2],[532790.1,203694.1],[532792.2,203616.2],[532756.3,203586.9],[532694.0,203595.0],[532678.7,203578.7],[532610.6,203555.8],[532515.9,203495.2],[532420.6,203455.9],[532371.9,203451.5],[532340.2,203428.8],[532116.0,203455.5],[532093.9,203477.0],[532097.0,203499.8],[532115.3,203513.7],[532322.2,203488.5]]]}},{"type":"Feature","properties":{"name":"Grimes Brook"},"geometry":{"type":"Polygon","coordinates":[[[528989.0,204138.3],[529011.8,204157.4],[529079.1,204147.3],[529099.1,204164.8],[529121.9,204164.5],[529196.7,204193.0],[529217.0,204190.8],[529269.1,204222.9],[529288.3,204224.3],[529304.8,204213.8],[529329.5,204252.2],[529382.1,204273.8],[529392.5,204293.8],[529424.8,204313.8],[529481.6,204327.1],[529540.1,204315.1],[529606.1,204343.4],[529630.2,204340.3],[529645.0,204322.8],[529635.9,204290.7],[529575.8,204262.6],[529530.4,204255.1],[529482.6,204266.9],[529445.2,204256.9],[529407.8,204211.7],[529369.4,204204.7],[529329.0,204156.3],[529257.8,204146.8],[529220.3,204118.3],[529178.0,204125.2],[529119.4,204081.9],[529078.7,204080.9],[529046.1,204069.0],[529023.3,204077.0],[529000.2,204067.7],[528972.1,204071.6],[528895.1,204026.5],[528842.5,204025.7],[528828.1,204043.6],[528830.6,204066.5],[528989.0,204138.3]]]}},{"type":"Feature","properties":{},"geometry":{"type":"Polygon","coordinates":[[[529042.6,204601.4],[529009.9,204582.7],[528988.4,204587.2],[528958.5,204620.0],[528933.6,204632.6],[529039.7,204634.6],[529042.6,204601.4]]]}},{"type":"Feature","properties":{},"geometry":{"type":"Polygon","coordinates":[[[528448.8,204602.8],[528559.4,204622.7],[528513.5,204598.3],[528470.5,204548.9],[528417.4,204520.0],[528392.0,204493.4],[528361.6,204484.4],[528336.2,204495.5],[528293.0,204487.0],[528268.6,204455.8],[528243.9,204447.2],[528284.7,204498.7],[528355.9,204556.6],[528448.8,204602.8]]]}},{"type":"Feature","properties":{},"geometry":{"type":"Polygon","coordinates":[[[528208.8,204130.0],[528239.6,204185.1],[528252.4,204305.4],[528296.3,204369.3],[528289.6,204387.0],[528293.6,204464.1],[528339.6,204498.6],[528345.8,204536.1],[528378.5,204542.5],[528394.7,204526.2],[528402.4,204477.8],[528391.3,204460.2],[528350.6,204434.8],[528358.1,204365.9],[528347.5,204334.7],[528310.1,204285.6],[528298.2,204169.9],[528268.3,204113.8],[528269.1,204059.6],[528257.0,204040.1],[528234.7,204034.8],[528215.2,204046.9],[528208.8,204130.0]]]}},{"type":"Feature","properties":{"name":"Cuffley Brook"},"geometry":{"type":"Polygon","coordinates":[[[531760.1,200698.0],[531814.7,200600.7],[531850.1,200466.7],[531808.5,200349.0],[531838.1,200332.3],[531855.7,200305.3],[531862.3,200251.8],[531814.1,200175.0],[531812.3,200123.3],[531752.3,200121.7],[531757.0,200196.2],[531801.9,200262.8],[531796.5,200287.3],[531755.9,200313.7],[531746.6,200331.2],[531759.0,200401.9],[531787.8,200468.4],[531759.4,200577.0],[531715.6,200654.9],[531673.5,200667.3],[531659.5,200688.8],[531665.3,200711.0],[531682.2,200722.0],[531746.0,200708.8],[531760.1,200698.0]]]}},{"type":"Feature","properties":{},"geometry":{"type":"Polygon","coordinates":[[[530359.8,204115.2],[530384.9,204130.0],[530396.3,204125.0],[530384.3,204062.5],[530367.2,204058.0],[530356.9,204089.1],[530359.8,204115.2]]]}},{"type":"Feature","properties":{"name":"Turkey Brook"},"geometry":{"type":"Polygon","coordinates":[[[529773.7,200674.3],[529965.4,200631.1],[530062.7,200581.1],[530074.0,200534.0],[530058.3,200517.2],[530038.2,200515.5],[530016.2,200539.6],[529944.6,200574.8],[529764.7,200615.0],[529488.2,200618.4],[529461.4,200642.0],[529465.5,200664.6],[529484.4,200677.6],[529773.7,200674.3]]]}},{"type":"Feature","properties":{},"geometry":{"type":"Polygon","coordinates":[[[528390.5,201429.0],[528367.9,201444.7],[528371.8,201464.8],[528393.2,201469.1],[528422.5,201455.7],[528433.2,201443.4],[528423.9,201432.1],[528390.5,201429.0]]]}},{"type":"Feature","properties":{},"geometry":{"type":"Polygon","coordinates":[[[528289.5,201385.5],[528347.4,201393.9],[528411.4,201459.4],[528434.3,201460.2],[528451.1,201444.6],[528449.4,201416.4],[528381.8,201343.0],[528315.3,201329.5],[528249.9,201268.6],[528248.9,201347.9],[528289.5,201385.5]]]}},{"type":"Feature","properties":{},"geometry":{"type":"Polygon","coordinates":[[[530297.7,201772.3],[530433.9,201731.0],[530522.4,201720.3],[530607.7,201730.1],[530719.1,201685.8],[531033.9,201608.9],[531050.6,201593.1],[531052.1,201572.9],[531026.9,201551.1],[530970.3,201559.5],[530700.6,201628.6],[530594.8,201669.8],[530521.5,201660.1],[530424.3,201671.7],[530223.8,201726.1],[530104.1,201736.3],[530091.4,201755.4],[530096.0,201777.9],[530142.8,201795.8],[530297.7,201772.3]]]}},{"type":"Feature","properties":{},"geometry":{"type":"Polygon","coordinates":[[[530730.0,203536.1],[530852.2,203421.5],[530855.4,203398.7],[530841.5,203380.4],[530808.2,203382.4],[530676.1,203505.9],[530656.4,203604.1],[530684.7,203621.7],[530715.2,203599.9],[530730.0,203536.1]]]}},{"type":"Feature","properties":{},"geometry":{"type":"Polygon","coordinates":[[[530346.9,204072.9],[530364.1,204088.1],[530387.0,204086.7],[530406.2,204068.9],[530461.0,203916.7],[530487.2,203888.6],[530487.6,203864.6],[530548.2,203767.0],[530613.7,203699.2],[530614.5,203657.9],[530632.0,203627.5],[530617.6,203600.2],[530592.1,203597.6],[530565.3,203616.2],[530555.5,203674.8],[530499.6,203731.8],[530430.8,203842.8],[530427.4,203866.2],[530392.4,203910.4],[530345.4,204050.0],[530346.9,204072.9]]]}},{"type":"Feature","properties":{},"geometry":{"type":"Polygon","coordinates":[[[530711.5,203603.2],[530712.4,203583.0],[530700.4,203566.8],[530680.7,203561.9],[530585.3,203601.0],[530572.2,203628.9],[530583.1,203649.1],[530605.1,203655.7],[530698.0,203618.2],[530711.5,203603.2]]]}},{"type":"Feature","properties":{"name":"Cuffley Brook"},"geometry":{"type":"Polygon","coordinates":[[[531715.8,200678.9],[531700.9,200665.2],[531680.7,200664.1],[531664.4,200676.0],[531628.3,200788.2],[531640.8,200819.1],[531663.3,200823.7],[531682.5,200811.1],[531718.6,200698.9],[531715.8,200678.9]]]}},{"type":"Feature","properties":{"name":"Hempshill Brook"},"geometry":{"type":"Polygon","coordinates":[[[529674.7,202355.3],[529672.0,202324.5],[529649.6,202312.1],[529612.3,202318.4],[529600.3,202337.9],[529605.6,202360.3],[529622.2,202371.7],[529651.7,202371.8],[529674.7,202355.3]]]}},{"type":"Feature","properties":{"name":"Hempshill Brook"},"geometry":{"type":"Polygon","coordinates":[[[529617.9,202338.7],[529624.2,202360.8],[529644.3,202371.9],[529671.1,202364.0],[529935.5,201942.2],[530030.3,201857.7],[530140.9,201783.4],[530150.8,201759.7],[530141.0,201738.9],[530110.8,201732.9],[530053.0,201766.6],[529890.6,201902.1],[529617.9,202338.7]]]}},{"type":"Feature","properties":{"name":"Turkey Brook"},"geometry":{"type":"Polygon","coordinates":[[[530242.9,200516.1],[530288.8,200499.9],[530324.4,200473.7],[530332.1,200441.3],[530319.2,200425.8],[530299.3,200422.0],[530228.3,200457.7],[530054.0,200463.5],[530032.1,200478.0],[530026.6,200505.5],[530041.2,200526.6],[530242.9,200516.1]]]}},{"type":"Feature","properties":{},"geometry":{"type":"Polygon","coordinates":[[[530068.7,200473.4],[530035.8,200478.7],[530016.1,200540.5],[530023.9,200565.0],[530044.8,200574.5],[530066.3,200566.5],[530086.0,200504.7],[530068.7,200473.4]]]}},{"type":"Feature","properties":{"name":"Hempshill Brook"},"geometry":{"type":"Polygon","coordinates":[[[528367.6,202842.8],[528406.3,202857.6],[528412.1,202905.9],[528447.3,202922.4],[528467.0,202918.8],[528485.5,202900.6],[528530.6,202912.9],[528551.4,202890.2],[528541.2,202861.1],[528485.8,202832.5],[528465.9,202833.0],[528449.1,202809.4],[528382.6,202784.3],[528316.8,202780.1],[528212.3,202745.4],[528210.7,202806.5],[528303.7,202839.0],[528367.6,202842.8]]]}},{"type":"Feature","properties":{},"geometry":{"type":"Polygon","coordinates":[[[528725.5,203311.6],[528755.1,203281.3],[528780.7,203270.1],[528841.3,203194.5],[528844.1,203174.5],[528833.6,203157.2],[528797.9,203155.7],[528746.6,203216.9],[528723.7,203220.1],[528703.2,203249.7],[528635.7,203278.9],[528600.2,203312.9],[528604.6,203335.5],[528623.6,203348.3],[528725.5,203311.6]]]}},{"type":"Feature","properties":{"name":"Grimes Brook"},"geometry":{"type":"Polygon","coordinates":[[[529102.3,203952.7],[529149.7,204083.1],[529151.5,204153.6],[529169.2,204180.9],[529197.2,204185.0],[529216.7,204161.1],[529208.8,204069.3],[529158.8,203931.6],[529124.8,203804.1],[529127.3,203777.3],[529111.9,203760.2],[529091.8,203758.2],[529075.0,203769.3],[529064.3,203795.4],[529102.3,203952.7]]]}},{"type":"Feature","properties":{},"geometry":{"type":"Polygon","coordinates":[[[531018.4,202055.6],[531034.9,202034.4],[531037.1,201974.1],[531028.9,201907.1],[530984.8,201917.2],[531010.4,201960.5],[531029.9,201970.3],[531020.8,201999.9],[530991.2,201936.1],[530979.6,201918.5],[530968.5,201918.5],[531000.7,202040.5],[531018.4,202055.6]]]}},{"type":"Feature","properties":{},"geometry":{"type":"Polygon","coordinates":[[[532189.7,204194.7],[532265.4,204197.0],[532269.2,204230.8],[532294.3,204243.9],[532321.8,204225.1],[532327.8,204171.2],[532321.1,204152.7],[532304.4,204142.2],[532096.5,204118.1],[532081.3,204135.2],[532082.6,204158.1],[532097.0,204172.3],[532189.7,204194.7]]]}},{"type":"Feature","properties":{},"geometry":{"type":"Polygon","coordinates":[[[532343.9,204155.5],[532323.6,204132.3],[532300.7,204134.1],[532269.2,204162.2],[532271.1,204185.1],[532288.5,204200.0],[532308.7,204199.4],[532333.0,204184.4],[532343.9,204155.5]]]}},{"type":"Feature","properties":{},"geometry":{"type":"Polygon","coordinates":[[[528879.6,203110.9],[528914.2,203064.5],[528944.5,202895.7],[528937.4,202876.8],[528919.9,202866.6],[528900.0,202869.9],[528886.6,202885.1],[528856.1,203048.6],[528825.4,203080.6],[528815.0,203133.0],[528800.0,203158.2],[528805.6,203180.5],[528825.3,203192.3],[528845.1,203188.4],[528864.1,203169.2],[528879.6,203110.9]]]}},{"type":"Feature","properties":{},"geometry":{"type":"Polygon","coordinates":[[[528858.0,203152.5],[528831.2,203132.7],[528809.6,203140.4],[528784.8,203178.7],[528792.3,203200.4],[528812.9,203210.5],[528832.3,203204.8],[528851.9,203182.8],[528858.0,203152.5]]]}},{"type":"Feature","properties":{"name":"Hempshill Brook"},"geometry":{"type":"Polygon","coordinates":[[[528583.6,202899.1],[528577.4,202864.0],[528537.2,202854.4],[528501.2,202862.6],[528492.0,202883.7],[528500.5,202905.1],[528554.7,202915.7],[528583.6,202899.1]]]}},{"type":"Feature","properties":{"name":"Grimes Brook"},"geometry":{"type":"Polygon","coordinates":[[[528844.0,204079.1],[528872.2,204077.8],[528886.6,204056.6],[528881.7,204029.0],[528863.3,204015.3],[528840.6,204018.5],[528827.7,204034.0],[528827.8,204059.1],[528844.0,204079.1]]]}},{"type":"Feature","properties":{"name":"Grimes Brook"},"geometry":{"type":"Polygon","coordinates":[[[528826.6,204065.5],[528860.2,204074.0],[528879.9,204062.2],[528885.5,204040.0],[528873.8,204020.3],[528831.5,204002.3],[528809.3,204019.8],[528812.6,204052.0],[528826.6,204065.5]]]}},{"type":"Feature","properties":{},"geometry":{"type":"Polygon","coordinates":[[[528859.1,204078.4],[528887.2,204081.6],[528904.7,204062.8],[528904.1,204034.7],[528888.1,204018.2],[528865.1,204017.9],[528849.9,204031.3],[528846.2,204056.2],[528859.1,204078.4]]]}},{"type":"Feature","properties":{},"geometry":{"type":"Polygon","coordinates":[[[528861.7,204072.0],[528892.5,204070.9],[528906.0,204049.1],[528901.6,204012.5],[528882.7,203999.5],[528860.1,204003.7],[528847.9,204019.7],[528846.3,204048.3],[528861.7,204072.0]]]}},{"type":"Feature","properties":{"name":"Grimes Brook"},"geometry":{"type":"Polygon","coordinates":[[[528833.3,204061.6],[528857.6,204053.4],[528866.7,204029.4],[528855.0,204002.3],[528834.0,203993.1],[528812.6,204001.5],[528803.4,204022.6],[528810.1,204045.5],[528833.3,204061.6]]]}},{"type":"Feature","properties":{"name":"Grimes Brook"},"geometry":{"type":"Polygon","coordinates":[[[528339.3,203939.0],[528403.5,203961.4],[528456.2,203996.4],[528500.6,204001.4],[528522.1,204019.1],[528614.8,204039.1],[528680.5,204045.5],[528706.0,204038.9],[528813.2,204068.1],[528853.1,204045.8],[528863.0,204028.2],[528859.5,204008.3],[528841.3,203994.2],[528806.4,204005.5],[528711.4,203977.9],[528679.8,203984.4],[528546.4,203962.6],[528529.2,203946.9],[528476.8,203938.6],[528429.4,203907.1],[528348.2,203878.7],[528270.4,203882.3],[528246.7,203899.3],[528241.7,203921.7],[528254.0,203941.1],[528339.3,203939.0]]]}},{"type":"Feature","properties":{},"geometry":{"type":"Polygon","coordinates":[[[530397.3,204041.1],[530377.3,204029.9],[530355.2,204036.2],[530344.0,204056.2],[530339.0,204122.2],[530346.9,204140.8],[530367.7,204150.6],[530389.2,204142.7],[530403.2,204092.0],[530397.3,204041.1]]]}},{"type":"Feature","properties":{},"geometry":{"type":"Polygon","coordinates":[[[530750.4,201128.5],[530759.1,201114.7],[530745.1,201074.4],[530726.3,201067.8],[530694.5,201082.2],[530674.4,201126.5],[530699.3,201145.8],[530750.4,201128.5]]]}},{"type":"Feature","properties":{},"geometry":{"type":"Polygon","coordinates":[[[532784.2,203920.6],[532747.1,203923.8],[532733.0,203941.9],[532735.8,203964.7],[532751.1,203977.9],[532779.8,203979.3],[532784.2,203920.6]]]}},{"type":"Feature","properties":{},"geometry":{"type":"Polygon","coordinates":[[[532475.4,204144.0],[532684.6,204001.6],[532779.1,203974.5],[532784.0,203929.6],[532739.2,203920.2],[532658.3,203947.4],[532444.4,204092.6],[532413.7,204107.5],[532346.9,204114.7],[532297.6,204135.9],[532284.5,204158.0],[532291.2,204179.9],[532311.5,204190.7],[532365.7,204171.9],[532424.3,204166.8],[532475.4,204144.0]]]}},{"type":"Feature","properties":{},"geometry":{"type":"Polygon","coordinates":[[[531954.0,201401.8],[531863.0,201336.1],[531819.9,201327.9],[531638.0,201166.7],[531574.9,201097.6],[531565.5,201061.4],[531508.1,200980.5],[531489.6,200972.3],[531467.8,200979.5],[531458.9,201011.6],[531511.4,201088.5],[531521.5,201127.1],[531594.8,201208.3],[531789.2,201380.7],[531836.6,201390.8],[531906.6,201440.8],[532034.9,201675.9],[532048.8,201729.3],[532068.7,201745.5],[532091.4,201742.2],[532105.1,201723.7],[532091.1,201653.9],[531954.0,201401.8]]]}}]}