{"type":"FeatureCollection","crs":{"type":"name","properties":{"name":"urn:ogc:def:crs:EPSG::32618"}},"metadata":{"crs":"EPSG:32618"},"features":[{"type":"Feature","properties":{"name":"Medellin, Pajarito / Ciudadela Nuevo Occidente","status":"draft boundary, adjust in QGIS","area_ha":4402},"geometry":{"type":"Polygon","coordinates":[[[433628.0252868059,690878.0733089239],[433635.623632759,697511.0303727484],[426998.9107208586,697519.0511664567],[426990.5523802983,690886.0190491821],[433628.0252868059,690878.0733089239]]]}}]}